NORAD_CAT_ID,OBJECT_NAME,OBJECT_TYPE,EPOCH,MEAN_MOTION,ECCENTRICITY,INCLINATION,RA_OF_ASC_NODE,ARG_OF_PERICENTER,MEAN_ANOMALY,BSTAR,MEAN_MOTION_DOT,MEAN_MOTION_DDOT,TLE_LINE0,TLE_LINE1,TLE_LINE2,SEMIMAJOR_AXIS,PERIOD,APOGEE,PERIGEE,DECAYED
52490.0,STARLINK-3914,PAYLOAD,2022-09-16 16:11:13,15.08832944,0.0001684,53.2204,350.4341,48.32899999999999,311.7846,0.00012318,1.673e-05,0.0,0 STARLINK-3914,1 52490U 22049AR  22259.67446514  .00001673  00000-0  12318-3 0  9999,2 52490  53.2204 350.4341 0001684  48.3290 311.7846 15.08832944 20661,6917.901999999999,95.438,540.932,538.602,0.0
52490.0,STARLINK-3914,PAYLOAD,2022-09-17 12:51:15,15.0883465,0.0001658,53.2209,346.5689,46.8663,313.2467,-1.3045e-05,-4.96e-06,0.0,0 STARLINK-3914,1 52490U 22049AR  22260.53559092 -.00000496  00000-0 -13045-4 0  9995,2 52490  53.2209 346.5689 0001658  46.8663 313.2467 15.08834650 20791,6917.897,95.438,540.909,538.615,0.0
52490.0,STARLINK-3914,PAYLOAD,2022-09-18 03:09:42,15.08842945,0.0001661,53.2209,343.8924,50.6084,309.5056,9.6525e-05,1.249e-05,0.0,0 STARLINK-3914,1 52490U 22049AR  22261.13174566  .00001249  00000-0  96525-4 0  9990,2 52490  53.2209 343.8924 0001661  50.6084 309.5056 15.08842945 21044,6917.871,95.437,540.885,538.587,0.0
52490.0,STARLINK-3914,PAYLOAD,2022-09-18 12:42:01,15.0884207,0.0001603,53.2199,342.1074,54.2713,305.8428,0.0001339,1.844e-05,0.0,0 STARLINK-3914,1 52490U 22049AR  22261.52918671  .00001844  00000-0  13390-3 0  9995,2 52490  53.2199 342.1074 0001603  54.2713 305.8428 15.08842070 20944,6917.874,95.437,540.8480000000002,538.63,0.0
52490.0,STARLINK-3914,PAYLOAD,2022-09-18 14:17:25,15.08835806,0.0001696,53.22,341.8116,48.8612,311.2527,0.00014787,2.066e-05,0.0,0 STARLINK-3914,1 52490U 22049AR  22261.59543048  .00002066  00000-0  14787-3 0  9992,2 52490  53.2200 341.8116 0001696  48.8612 311.2527 15.08835806 21119,6917.893,95.438,540.931,538.585,0.0
52490.0,STARLINK-3914,PAYLOAD,2022-09-19 10:57:25,15.08851729,0.0001771999999999,53.22,337.9457,46.1236,313.9903,0.00030244,4.53e-05,0.0,0 STARLINK-3914,1 52490U 22049AR  22262.45654300  .00004530  00000-0  30244-3 0  9996,2 52490  53.2200 337.9457 0001772  46.1236 313.9903 15.08851729 21244,6917.845,95.437,540.935,538.484,0.0
52490.0,STARLINK-3914,PAYLOAD,2022-09-19 14:08:11,15.08853301,0.0001828,53.2197,337.351,45.3176,314.7965,0.00028018,4.175e-05,0.0,0 STARLINK-3914,1 52490U 22049AR  22262.58902223  .00004175  00000-0  28018-3 0  9991,2 52490  53.2197 337.3510 0001828  45.3176 314.7965 15.08853301 21109,6917.84,95.437,540.969,538.44,0.0
52490.0,STARLINK-3914,PAYLOAD,2022-09-20 02:51:16,15.08841348,0.0001732,53.2194,334.9722,51.8629,308.2519,-7.0438e-05,-1.409e-05,0.0,0 STARLINK-3914,1 52490U 22049AR  22263.11894340 -.00001409  00000-0 -70438-4 0  9994,2 52490  53.2194 334.9722 0001732  51.8629 308.2519 15.08841348 21340,6917.876,95.437,540.939,538.543,0.0
52490.0,STARLINK-3914,PAYLOAD,2022-09-20 07:37:26,15.0883992,0.0001746,53.2199,334.0802,51.0799,309.0349,-4.5564e-05,-1.013e-05,0.0,0 STARLINK-3914,1 52490U 22049AR  22263.31766598 -.00001013  00000-0 -45564-4 0  9992,2 52490  53.2199 334.0802 0001746  51.0799 309.0349 15.08839920 21219,6917.880999999999,95.438,540.953,538.538,0.0
52490.0,STARLINK-3914,PAYLOAD,2022-09-21 04:17:26,15.08841618,0.0001612,53.2202,330.2144,55.8528,304.2617,-2.5501e-05,-6.94e-06,0.0,0 STARLINK-3914,1 52490U 22049AR  22264.17878377 -.00000694  00000-0 -25501-4 0  9999,2 52490  53.2202 330.2144 0001612  55.8528 304.2617 15.08841618 21509,6917.875,95.437,540.856,538.625,0.0
52490.0,STARLINK-3914,PAYLOAD,2022-09-21 21:46:41,15.08842767,0.0001854,53.2201,326.9441,48.5539,311.5613,6.829899999999999e-05,7.99e-06,0.0,0 STARLINK-3914,1 52490U 22049AR  22264.90742472  .00000799  00000-0  68299-4 0  9991,2 52490  53.2201 326.9441 0001854  48.5539 311.5613 15.08842767 21456,6917.871999999999,95.437,541.02,538.4540000000002,0.0
52490.0,STARLINK-3914,PAYLOAD,2022-09-22 02:32:52,15.08824459,0.0001571999999999,53.2203,326.0513,51.5804,308.5329,1.8273e-05,3e-08,0.0,0 STARLINK-3914,1 52490U 22049AR  22265.10615802  .00000003  00000-0  18273-4 0  9995,2 52490  53.2203 326.0513 0001572  51.5804 308.5329 15.08824459 21644,6917.928000000001,95.439,540.88,538.705,0.0
52490.0,STARLINK-3914,PAYLOAD,2022-09-22 10:29:47,15.08822462,0.0001631,53.2198,324.565,50.0072,310.1063,-7.598300000000001e-05,-1.496e-05,0.0,0 STARLINK-3914,1 52490U 22049AR  22265.43735866 -.00001496  00000-0 -75983-4 0  9994,2 52490  53.2198 324.5650 0001631  50.0072 310.1063 15.08822462 21533,6917.934,95.439,540.927,538.6709999999998,0.0
52490.0,STARLINK-3914,PAYLOAD,2022-09-23 03:59:02,15.08836536,0.0001810999999999,53.2199,321.2939,41.8976,318.2154,-4.0188e-06,-3.52e-06,0.0,0 STARLINK-3914,1 52490U 22049AR  22266.16599753 -.00000352  00000-0 -40188-5 0  9998,2 52490  53.2199 321.2939 0001811  41.8976 318.2154 15.08836536 21806,6917.891,95.438,541.009,538.503,0.0
52490.0,STARLINK-3914,PAYLOAD,2022-09-23 10:20:34,15.08836969,0.0001884,53.22,320.1047,38.8129,321.2998,5.2416e-05,5.46e-06,0.0,0 STARLINK-3914,1 52490U 22049AR  22266.43095640  .00000546  00000-0  52416-4 0  9993,2 52490  53.2200 320.1047 0001884  38.8129 321.2998 15.08836969 21689,6917.89,95.438,541.058,538.451,0.0
52490.0,STARLINK-3914,PAYLOAD,2022-09-24 10:11:22,15.0882993,0.0001771999999999,53.2203,315.645,42.5542,317.5587,0.0001574,2.217e-05,0.0,0 STARLINK-3914,1 52490U 22049AR  22267.42456224  .00002217  00000-0  15740-3 0  9997,2 52490  53.2203 315.6450 0001772  42.5542 317.5587 15.08829930 21835,6917.911,95.438,541.002,538.55,0.0
52490.0,STARLINK-3914,PAYLOAD,2022-09-24 19:43:40,15.08837765,0.0001693,53.2201,313.8603,42.3646,317.7477,0.00014462,2.014e-05,0.0,0 STARLINK-3914,1 52490U 22049AR  22267.82199886  .00002014  00000-0  14462-3 0  9994,2 52490  53.2201 313.8603 0001693  42.3646 317.7477 15.08837765 22058,6917.887,95.438,540.923,538.581,0.0
52490.0,STARLINK-3914,PAYLOAD,2022-09-25 10:02:08,15.08844271,0.0001708,53.2188,311.181,45.3153,314.7978,0.00012265,1.665e-05,0.0,0 STARLINK-3914,1 52490U 22049AR  22268.41815437  .00001665  00000-0  12265-3 0  9997,2 52490  53.2188 311.1810 0001708  45.3153 314.7978 15.08844271 21980,6917.8669999999975,95.437,540.914,538.5509999999998,0.0
52490.0,STARLINK-3914,PAYLOAD,2022-09-25 19:34:27,15.08839314,0.0002105,53.2185,309.3968,31.7839,328.3279,1.1601e-05,-1.04e-06,0.0,0 STARLINK-3914,1 52490U 22049AR  22268.81560041 -.00000104  00000-0  11601-4 0  9991,2 52490  53.2185 309.3968 0002105  31.7839 328.3279 15.08839314 22047,6917.882,95.438,541.2040000000002,538.2909999999998,0.0
52490.0,STARLINK-3914,PAYLOAD,2022-09-26 06:42:09,15.08837675,0.0002005999999999,53.2193,307.317,35.2776,324.8348,1.3315e-05,-7.6e-07,0.0,0 STARLINK-3914,1 52490U 22049AR  22269.27928167 -.00000076  00000-0  13315-4 0  9991,2 52490  53.2193 307.3170 0002006  35.2776 324.8348 15.08837675 22279,6917.887,95.438,541.14,538.365,0.0
52490.0,STARLINK-3914,PAYLOAD,2022-09-26 08:17:33,15.08836457,0.0001884,53.2199,307.02,38.2277,321.8849,8.5671e-06,-1.52e-06,0.0,0 STARLINK-3914,1 52490U 22049AR  22269.34552280 -.00000152  00000-0  85671-5 0  9998,2 52490  53.2199 307.0200 0001884  38.2277 321.8849 15.08836457 22122,6917.891,95.438,541.06,538.453,0.0
52490.0,STARLINK-3914,PAYLOAD,2022-09-27 09:43:44,15.0880385,0.0002119,53.2203,302.2632,49.8618,310.256,0.00048283,7.397e-05,0.0,0 STARLINK-3914,1 52490U 22049AR  22270.40537315  .00007397  00000-0  48283-3 0  9992,2 52490  53.2203 302.2632 0002119  49.8618 310.2560 15.08803850 22441,6917.991,95.44,541.322,538.39,0.0
52490.0,STARLINK-3914,PAYLOAD,2022-09-28 03:12:56,15.08851389,0.0002102,53.2199,298.9914,40.9591,319.1559,0.00019459,2.811e-05,0.0,0 STARLINK-3914,1 52490U 22049AR  22271.13399223  .00002811  00000-0  19459-3 0  9996,2 52490  53.2199 298.9914 0002102  40.9591 319.1559 15.08851389 22551,6917.846,95.437,541.165,538.256,0.0
52490.0,STARLINK-3914,PAYLOAD,2022-09-28 11:09:52,15.08868782,0.0001773,53.2196,297.5065,58.7028,301.4137,-0.0003037,-5.122e-05,0.0,0 STARLINK-3914,1 52490U 22049AR  22271.46519075 -.00005122  00000-0 -30370-3 0  9996,2 52490  53.2196 297.5065 0001773  58.7028 301.4137 15.08868782 22444,6917.792,95.436,540.884,538.431,0.0
52490.0,STARLINK-3914,PAYLOAD,2022-09-29 01:28:21,15.0885539,0.000199,53.2198,294.8306,41.5935,318.5209,-2.7826e-05,-7.31e-06,0.0,0 STARLINK-3914,1 52490U 22049AR  22272.06135692 -.00000731  00000-0 -27826-4 0  9996,2 52490  53.2198 294.8306 0001990  41.5935 318.5209 15.08855390 22699,6917.833000000001,95.437,541.075,538.322,0.0
52490.0,STARLINK-3914,PAYLOAD,2022-09-29 07:49:54,15.08846447,0.0002174999999999,53.2202,293.6403,39.1106,321.0043,-5.1539e-05,-1.109e-05,0.0,0 STARLINK-3914,1 52490U 22049AR  22272.32632219 -.00001109  00000-0 -51539-4 0  9990,2 52490  53.2202 293.6403 0002175  39.1106 321.0043 15.08846447 22732,6917.861,95.437,541.23,538.221,0.0
52490.0,STARLINK-3914,PAYLOAD,2022-09-30 10:51:26,15.08847769,0.0001940999999999,53.2194,288.5861,41.1457,318.9681,8.4725e-05,1.061e-05,0.0,0 STARLINK-3914,1 52490U 22049AR  22273.45239370  .00001061  00000-0  84725-4 0  9994,2 52490  53.2194 288.5861 0001941  41.1457 318.9681 15.08847769 22747,6917.857,95.437,541.064,538.379,0.0
52490.0,STARLINK-3914,PAYLOAD,2022-10-01 04:20:41,15.08839782,0.0001983,53.219,285.3151,41.7796,318.3347,0.00012009,1.624e-05,0.0,0 STARLINK-3914,1 52490U 22049AR  22274.18103641  .00001624  00000-0  12009-3 0  9996,2 52490  53.2190 285.3151 0001983  41.7796 318.3347 15.08839782 23018,6917.880999999999,95.438,541.118,538.374,0.0
52490.0,STARLINK-3914,PAYLOAD,2022-10-01 10:42:13,15.0884547,0.0001971,53.2192,284.1254,43.7436,316.3712,0.00015919,2.247e-05,0.0,0 STARLINK-3914,1 52490U 22049AR  22274.44599236  .00002247  00000-0  15919-3 0  9999,2 52490  53.2192 284.1254 0001971  43.7436 316.3712 15.08845470 22891,6917.864000000001,95.437,541.092,538.365,0.0
